[{"OBJECT_NAME":"ONEWEB-0094","OBJECT_ID":"2020-020AC","EPOCH":"2026-06-12T06:24:35.377632","MEAN_MOTION":13.17647604,"ECCENTRICITY":0.0001642,"INCLINATION":87.9146,"RA_OF_ASC_NODE":6.8273,"ARG_OF_PERICENTER":83.7529,"MEAN_ANOMALY":276.379,"EPHEMERIS_TYPE":0,"CLASSIFICATION_TYPE":"U","NORAD_CAT_ID":45450,"ELEMENT_SET_NO":999,"REV_AT_EPOCH":30566,"BSTAR":9.024400000000001e-05,"MEAN_MOTION_DOT":4.8e-07,"MEAN_MOTION_DDOT":0.0},{"OBJECT_NAME":"ONEWEB-0087","OBJECT_ID":"2020-020AD","EPOCH":"2026-06-12T03:33:30.792384","MEAN_MOTION":13.11415752,"ECCENTRICITY":0.0001724,"INCLINATION":87.8908,"RA_OF_ASC_NODE":22.0448,"ARG_OF_PERICENTER":75.2072,"MEAN_ANOMALY":284.9247,"EPHEMERIS_TYPE":0,"CLASSIFICATION_TYPE":"U","NORAD_CAT_ID":45451,"ELEMENT_SET_NO":999,"REV_AT_EPOCH":30192,"BSTAR":0.00083516,"MEAN_MOTION_DOT":3.09e-06,"MEAN_MOTION_DDOT":0.0},{"OBJECT_NAME":"ONEWEB-0082","OBJECT_ID":"2020-020AE","EPOCH":"2026-06-12T03:28:38.887392","MEAN_MOTION":13.11416721,"ECCENTRICITY":0.0001959,"INCLINATION":87.8899,"RA_OF_ASC_NODE":22.0624,"ARG_OF_PERICENTER":70.6364,"MEAN_ANOMALY":289.4976,"EPHEMERIS_TYPE":0,"CLASSIFICATION_TYPE":"U","NORAD_CAT_ID":45452,"ELEMENT_SET_NO":999,"REV_AT_EPOCH":30201,"BSTAR":0.0012656000000000002,"MEAN_MOTION_DOT":4.61e-06,"MEAN_MOTION_DDOT":0.0},{"OBJECT_NAME":"ONEWEB-0050","OBJECT_ID":"2020-020AF","EPOCH":"2026-06-12T05:47:07.115712","MEAN_MOTION":14.90362079,"ECCENTRICITY":0.000386,"INCLINATION":88.9298,"RA_OF_ASC_NODE":233.8815,"ARG_OF_PERICENTER":39.2604,"MEAN_ANOMALY":320.8904,"EPHEMERIS_TYPE":0,"CLASSIFICATION_TYPE":"U","NORAD_CAT_ID":45453,"ELEMENT_SET_NO":999,"REV_AT_EPOCH":33964,"BSTAR":0.00022011,"MEAN_MOTION_DOT":2.162e-05,"MEAN_MOTION_DDOT":0.0},{"OBJECT_NAME":"ONEWEB-0034","OBJECT_ID":"2020-020AG","EPOCH":"2026-06-12T02:32:52.282752","MEAN_MOTION":13.11428222,"ECCENTRICITY":8.77e-05,"INCLINATION":87.8898,"RA_OF_ASC_NODE":22.08,"ARG_OF_PERICENTER":81.3441,"MEAN_ANOMALY":278.7786,"EPHEMERIS_TYPE":0,"CLASSIFICATION_TYPE":"U","NORAD_CAT_ID":45454,"ELEMENT_SET_NO":999,"REV_AT_EPOCH":30192,"BSTAR":-0.0013281999999999999,"MEAN_MOTION_DOT":-4.58e-06,"MEAN_MOTION_DDOT":0.0},{"OBJECT_NAME":"ONEWEB-0060","OBJECT_ID":"2020-020AH","EPOCH":"2026-06-12T03:17:50.461440","MEAN_MOTION":13.11417354,"ECCENTRICITY":0.0001519,"INCLINATION":87.8892,"RA_OF_ASC_NODE":22.0717,"ARG_OF_PERICENTER":50.1615,"MEAN_ANOMALY":309.9647,"EPHEMERIS_TYPE":0,"CLASSIFICATION_TYPE":"U","NORAD_CAT_ID":45455,"ELEMENT_SET_NO":999,"REV_AT_EPOCH":30188,"BSTAR":0.0015742,"MEAN_MOTION_DOT":5.71e-06,"MEAN_MOTION_DDOT":0.0},{"OBJECT_NAME":"ONEWEB-0086","OBJECT_ID":"2020-020AJ","EPOCH":"2026-06-12T02:47:06.937728","MEAN_MOTION":13.11417361,"ECCENTRICITY":0.0001089,"INCLINATION":87.89,"RA_OF_ASC_NODE":22.0712,"ARG_OF_PERICENTER":72.68,"MEAN_ANOMALY":287.4448,"EPHEMERIS_TYPE":0,"CLASSIFICATION_TYPE":"U","NORAD_CAT_ID":45456,"ELEMENT_SET_NO":999,"REV_AT_EPOCH":30194,"BSTAR":0.00017271000000000002,"MEAN_MOTION_DOT":7.4e-07,"MEAN_MOTION_DDOT":0.0},{"OBJECT_NAME":"ONEWEB-0088","OBJECT_ID":"2020-020AK","EPOCH":"2026-06-12T04:05:26.234592","MEAN_MOTION":13.11417388,"ECCENTRICITY":0.0002208,"INCLINATION":87.8909,"RA_OF_ASC_NODE":22.0327,"ARG_OF_PERICENTER":81.2201,"MEAN_ANOMALY":278.9177,"EPHEMERIS_TYPE":0,"CLASSIFICATION_TYPE":"U","NORAD_CAT_ID":45457,"ELEMENT_SET_NO":999,"REV_AT_EPOCH":30188,"BSTAR":-0.0013494999999999998,"MEAN_MOTION_DOT":-4.66e-06,"MEAN_MOTION_DDOT":0.0},{"OBJECT_NAME":"ONEWEB-0102","OBJECT_ID":"2020-100A","EPOCH":"2026-06-12T06:06:52.482240","MEAN_MOTION":13.12445597,"ECCENTRICITY":0.0001547,"INCLINATION":87.8939,"RA_OF_ASC_NODE":351.6568,"ARG_OF_PERICENTER":95.7073,"MEAN_ANOMALY":264.4232,"EPHEMERIS_TYPE":0,"CLASSIFICATION_TYPE":"U","NORAD_CAT_ID":47258,"ELEMENT_SET_NO":999,"REV_AT_EPOCH":26408,"BSTAR":-0.00063517,"MEAN_MOTION_DOT":-2.16e-06,"MEAN_MOTION_DDOT":0.0},{"OBJECT_NAME":"ONEWEB-0109","OBJECT_ID":"2020-100B","EPOCH":"2026-06-12T06:19:05.018592","MEAN_MOTION":13.12444795,"ECCENTRICITY":0.0001778,"INCLINATION":87.8947,"RA_OF_ASC_NODE":351.638,"ARG_OF_PERICENTER":95.2026,"MEAN_ANOMALY":264.9306,"EPHEMERIS_TYPE":0,"CLASSIFICATION_TYPE":"U","NORAD_CAT_ID":47259,"ELEMENT_SET_NO":999,"REV_AT_EPOCH":26391,"BSTAR":5.1453000000000004e-05,"MEAN_MOTION_DOT":3.1e-07,"MEAN_MOTION_DDOT":0.0},{"OBJECT_NAME":"ONEWEB-0110","OBJECT_ID":"2020-100C","EPOCH":"2026-06-12T01:28:46.532352","MEAN_MOTION":13.12443336,"ECCENTRICITY":0.0001543,"INCLINATION":87.8948,"RA_OF_ASC_NODE":351.6623,"ARG_OF_PERICENTER":86.2224,"MEAN_ANOMALY":273.9081,"EPHEMERIS_TYPE":0,"CLASSIFICATION_TYPE":"U","NORAD_CAT_ID":47260,"ELEMENT_SET_NO":999,"REV_AT_EPOCH":26405,"BSTAR":0.0008652,"MEAN_MOTION_DOT":3.24e-06,"MEAN_MOTION_DDOT":0.0},{"OBJECT_NAME":"ONEWEB-0111","OBJECT_ID":"2020-100D","EPOCH":"2026-06-12T05:52:13.886688","MEAN_MOTION":13.12441173,"ECCENTRICITY":0.000179,"INCLINATION":87.8947,"RA_OF_ASC_NODE":351.6446,"ARG_OF_PERICENTER":86.7572,"MEAN_ANOMALY":273.3762,"EPHEMERIS_TYPE":0,"CLASSIFICATION_TYPE":"U","NORAD_CAT_ID":47261,"ELEMENT_SET_NO":999,"REV_AT_EPOCH":26391,"BSTAR":-0.001221,"MEAN_MOTION_DOT":-4.26e-06,"MEAN_MOTION_DDOT":0.0},{"OBJECT_NAME":"ONEWEB-0114","OBJECT_ID":"2020-100E","EPOCH":"2026-06-12T06:36:09.855648","MEAN_MOTION":13.12444451,"ECCENTRICITY":0.000199,"INCLINATION":87.8947,"RA_OF_ASC_NODE":351.636,"ARG_OF_PERICENTER":96.7068,"MEAN_ANOMALY":263.4287,"EPHEMERIS_TYPE":0,"CLASSIFICATION_TYPE":"U","NORAD_CAT_ID":47262,"ELEMENT_SET_NO":999,"REV_AT_EPOCH":26387,"BSTAR":0.0010259,"MEAN_MOTION_DOT":3.82e-06,"MEAN_MOTION_DDOT":0.0},{"OBJECT_NAME":"ONEWEB-0117","OBJECT_ID":"2020-100F","EPOCH":"2026-06-12T06:23:58.250688","MEAN_MOTION":13.12443674,"ECCENTRICITY":0.0001769,"INCLINATION":87.8946,"RA_OF_ASC_NODE":351.6288,"ARG_OF_PERICENTER":90.0768,"MEAN_ANOMALY":270.0563,"EPHEMERIS_TYPE":0,"CLASSIFICATION_TYPE":"U","NORAD_CAT_ID":47263,"ELEMENT_SET_NO":999,"REV_AT_EPOCH":26388,"BSTAR":0.00040671,"MEAN_MOTION_DOT":1.59e-06,"MEAN_MOTION_DDOT":0.0},{"OBJECT_NAME":"ONEWEB-0118","OBJECT_ID":"2020-100G","EPOCH":"2026-06-12T05:22:58.385568","MEAN_MOTION":13.12442124,"ECCENTRICITY":0.0002114,"INCLINATION":87.8946,"RA_OF_ASC_NODE":351.6396,"ARG_OF_PERICENTER":92.6767,"MEAN_ANOMALY":267.4603,"EPHEMERIS_TYPE":0,"CLASSIFICATION_TYPE":"U","NORAD_CAT_ID":47264,"ELEMENT_SET_NO":999,"REV_AT_EPOCH":26407,"BSTAR":9.846500000000001e-05,"MEAN_MOTION_DOT":4.8e-07,"MEAN_MOTION_DDOT":0.0},{"OBJECT_NAME":"ONEWEB-0119","OBJECT_ID":"2020-100H","EPOCH":"2026-06-12T05:59:34.107648","MEAN_MOTION":13.12443626,"ECCENTRICITY":0.000182,"INCLINATION":87.8937,"RA_OF_ASC_NODE":351.6521,"ARG_OF_PERICENTER":90.8928,"MEAN_ANOMALY":269.241,"EPHEMERIS_TYPE":0,"CLASSIFICATION_TYPE":"U","NORAD_CAT_ID":47265,"ELEMENT_SET_NO":999,"REV_AT_EPOCH":26405,"BSTAR":-0.0010248,"MEAN_MOTION_DOT":-3.56e-06,"MEAN_MOTION_DDOT":0.0}]