ONEWEB-0094             
1 45450U 20020AC  26163.26707613  .00000048  00000+0  90244-4 0  9996
2 45450  87.9146   6.8273 0001642  83.7529 276.3790 13.17647604305661
ONEWEB-0087             
1 45451U 20020AD  26163.14827306  .00000309  00000+0  83516-3 0  9999
2 45451  87.8908  22.0448 0001724  75.2072 284.9247 13.11415752301929
ONEWEB-0082             
1 45452U 20020AE  26163.14489453  .00000461  00000+0  12656-2 0  9992
2 45452  87.8899  22.0624 0001959  70.6364 289.4976 13.11416721302015
ONEWEB-0050             
1 45453U 20020AF  26163.24105458  .00002162  00000+0  22011-3 0  9991
2 45453  88.9298 233.8815 0003860  39.2604 320.8904 14.90362079339640
ONEWEB-0034             
1 45454U 20020AG  26163.10616068 -.00000458  00000+0 -13282-2 0  9998
2 45454  87.8898  22.0800 0000877  81.3441 278.7786 13.11428222301923
ONEWEB-0060             
1 45455U 20020AH  26163.13738960  .00000571  00000+0  15742-2 0  9995
2 45455  87.8892  22.0717 0001519  50.1615 309.9647 13.11417354301888
ONEWEB-0086             
1 45456U 20020AJ  26163.11605252  .00000074  00000+0  17271-3 0  9999
2 45456  87.8900  22.0712 0001089  72.6800 287.4448 13.11417361301945
ONEWEB-0088             
1 45457U 20020AK  26163.17044253 -.00000466  00000+0 -13495-2 0  9994
2 45457  87.8909  22.0327 0002208  81.2201 278.9177 13.11417388301888
ONEWEB-0102             
1 47258U 20100A   26163.25477410 -.00000216  00000+0 -63517-3 0  9992
2 47258  87.8939 351.6568 0001547  95.7073 264.4232 13.12445597264088
ONEWEB-0109             
1 47259U 20100B   26163.26325253  .00000031  00000+0  51453-4 0  9991
2 47259  87.8947 351.6380 0001778  95.2026 264.9306 13.12444795263916
ONEWEB-0110             
1 47260U 20100C   26163.06164968  .00000324  00000+0  86520-3 0  9992
2 47260  87.8948 351.6623 0001543  86.2224 273.9081 13.12443336264055
ONEWEB-0111             
1 47261U 20100D   26163.24460517 -.00000426  00000+0 -12210-2 0  9991
2 47261  87.8947 351.6446 0001790  86.7572 273.3762 13.12441173263914
ONEWEB-0114             
1 47262U 20100E   26163.27511407  .00000382  00000+0  10259-2 0  9990
2 47262  87.8947 351.6360 0001990  96.7068 263.4287 13.12444451263872
ONEWEB-0117             
1 47263U 20100F   26163.26664642  .00000159  00000+0  40671-3 0  9994
2 47263  87.8946 351.6288 0001769  90.0768 270.0563 13.12443674263887
ONEWEB-0118             
1 47264U 20100G   26163.22428687  .00000048  00000+0  98465-4 0  9990
2 47264  87.8946 351.6396 0002114  92.6767 267.4603 13.12442124264076
ONEWEB-0119             
1 47265U 20100H   26163.24970032 -.00000356  00000+0 -10248-2 0  9994
2 47265  87.8937 351.6521 0001820  90.8928 269.2410 13.12443626264051
